CCSDS_OMM_VERS = 2.0
CREATION_DATE  = 
ORIGINATOR     = 

OBJECT_NAME    = 2025-313AS
OBJECT_ID      = 2025-313AS
CENTER_NAME    = EARTH
REF_FRAME      = TEME
TIME_SYSTEM    = UTC
MEAN_ELEMENT_THEORY = SGP/SGP4

EPOCH          = 2026-01-18T22:11:26.891520
MEAN_MOTION    = 15.21257955
ECCENTRICITY   = .0012684
INCLINATION    = 97.4096
RA_OF_ASC_NODE = 96.0490
ARG_OF_PERICENTER = 148.0913
MEAN_ANOMALY   = 212.1094

EPHEMERIS_TYPE = 0
CLASSIFICATION_TYPE = U
NORAD_CAT_ID   = 67288
ELEMENT_SET_NO = 999
REV_AT_EPOCH   = 325
BSTAR          = .26230848E-3
MEAN_MOTION_DOT = .5804E-4
MEAN_MOTION_DDOT = 0

CCSDS_OMM_VERS = 2.0
CREATION_DATE  = 
ORIGINATOR     = 

OBJECT_NAME    = NASBSAT-1
OBJECT_ID      = 2025-313AT
CENTER_NAME    = EARTH
REF_FRAME      = TEME
TIME_SYSTEM    = UTC
MEAN_ELEMENT_THEORY = SGP/SGP4

EPOCH          = 2026-01-18T22:07:37.979904
MEAN_MOTION    = 15.21602886
ECCENTRICITY   = .00107091
INCLINATION    = 97.4109
RA_OF_ASC_NODE = 96.0575
ARG_OF_PERICENTER = 155.4927
MEAN_ANOMALY   = 204.6820

EPHEMERIS_TYPE = 0
CLASSIFICATION_TYPE = U
NORAD_CAT_ID   = 67289
ELEMENT_SET_NO = 999
REV_AT_EPOCH   = 325
BSTAR          = .57693168E-3
MEAN_MOTION_DOT = .12983E-3
MEAN_MOTION_DDOT = 0

CCSDS_OMM_VERS = 2.0
CREATION_DATE  = 
ORIGINATOR     = 

OBJECT_NAME    = SAKHACUBE-CHOLBON (RS18S)
OBJECT_ID      = 2025-313AU
CENTER_NAME    = EARTH
REF_FRAME      = TEME
TIME_SYSTEM    = UTC
MEAN_ELEMENT_THEORY = SGP/SGP4

EPOCH          = 2026-01-18T22:08:07.831104
MEAN_MOTION    = 15.21516454
ECCENTRICITY   = .00105665
INCLINATION    = 97.4107
RA_OF_ASC_NODE = 96.0566
ARG_OF_PERICENTER = 154.4086
MEAN_ANOMALY   = 205.7675

EPHEMERIS_TYPE = 0
CLASSIFICATION_TYPE = U
NORAD_CAT_ID   = 67290
ELEMENT_SET_NO = 999
REV_AT_EPOCH   = 325
BSTAR          = .42521826E-3
MEAN_MOTION_DOT = .9521E-4
MEAN_MOTION_DDOT = 0

CCSDS_OMM_VERS = 2.0
CREATION_DATE  = 
ORIGINATOR     = 

OBJECT_NAME    = QMR-KWT-2 (RS95S)
OBJECT_ID      = 2025-313AV
CENTER_NAME    = EARTH
REF_FRAME      = TEME
TIME_SYSTEM    = UTC
MEAN_ELEMENT_THEORY = SGP/SGP4

EPOCH          = 2026-01-18T22:07:14.635488
MEAN_MOTION    = 15.21597953
ECCENTRICITY   = .00104386
INCLINATION    = 97.4107
RA_OF_ASC_NODE = 96.0575
ARG_OF_PERICENTER = 154.4992
MEAN_ANOMALY   = 205.6761

EPHEMERIS_TYPE = 0
CLASSIFICATION_TYPE = U
NORAD_CAT_ID   = 67291
ELEMENT_SET_NO = 999
REV_AT_EPOCH   = 325
BSTAR          = .58646046E-3
MEAN_MOTION_DOT = .13196E-3
MEAN_MOTION_DDOT = 0

CCSDS_OMM_VERS = 2.0
CREATION_DATE  = 
ORIGINATOR     = 

OBJECT_NAME    = SITRO-AIS-64
OBJECT_ID      = 2025-313AW
CENTER_NAME    = EARTH
REF_FRAME      = TEME
TIME_SYSTEM    = UTC
MEAN_ELEMENT_THEORY = SGP/SGP4

EPOCH          = 2026-01-18T22:06:14.919264
MEAN_MOTION    = 15.21613784
ECCENTRICITY   = .00102341
INCLINATION    = 97.4111
RA_OF_ASC_NODE = 96.0598
ARG_OF_PERICENTER = 154.1964
MEAN_ANOMALY   = 205.9784

EPHEMERIS_TYPE = 0
CLASSIFICATION_TYPE = U
NORAD_CAT_ID   = 67292
ELEMENT_SET_NO = 999
REV_AT_EPOCH   = 325
BSTAR          = .42745502E-3
MEAN_MOTION_DOT = .9599E-4
MEAN_MOTION_DDOT = 0

CCSDS_OMM_VERS = 2.0
CREATION_DATE  = 
ORIGINATOR     = 

OBJECT_NAME    = SCORPION (RS89S)
OBJECT_ID      = 2025-313AX
CENTER_NAME    = EARTH
REF_FRAME      = TEME
TIME_SYSTEM    = UTC
MEAN_ELEMENT_THEORY = SGP/SGP4

EPOCH          = 2026-01-18T22:08:48.539328
MEAN_MOTION    = 15.21359728
ECCENTRICITY   = .00121548
INCLINATION    = 97.4106
RA_OF_ASC_NODE = 96.0537
ARG_OF_PERICENTER = 145.8910
MEAN_ANOMALY   = 214.3109

EPHEMERIS_TYPE = 0
CLASSIFICATION_TYPE = U
NORAD_CAT_ID   = 67293
ELEMENT_SET_NO = 999
REV_AT_EPOCH   = 325
BSTAR          = .19821268E-3
MEAN_MOTION_DOT = .438E-4
MEAN_MOTION_DDOT = 0

CCSDS_OMM_VERS = 2.0
CREATION_DATE  = 
ORIGINATOR     = 

OBJECT_NAME    = SITRO-AIS-63
OBJECT_ID      = 2025-313AY
CENTER_NAME    = EARTH
REF_FRAME      = TEME
TIME_SYSTEM    = UTC
MEAN_ELEMENT_THEORY = SGP/SGP4

EPOCH          = 2026-01-18T22:05:23.665056
MEAN_MOTION    = 15.21654999
ECCENTRICITY   = .00101363
INCLINATION    = 97.4115
RA_OF_ASC_NODE = 96.0611
ARG_OF_PERICENTER = 154.3669
MEAN_ANOMALY   = 205.8071

EPHEMERIS_TYPE = 0
CLASSIFICATION_TYPE = U
NORAD_CAT_ID   = 67294
ELEMENT_SET_NO = 999
REV_AT_EPOCH   = 325
BSTAR          = .42959364E-3
MEAN_MOTION_DOT = .9658E-4
MEAN_MOTION_DDOT = 0

CCSDS_OMM_VERS = 2.0
CREATION_DATE  = 
ORIGINATOR     = 

OBJECT_NAME    = ZORKIY-2M-5
OBJECT_ID      = 2025-313AZ
CENTER_NAME    = EARTH
REF_FRAME      = TEME
TIME_SYSTEM    = UTC
MEAN_ELEMENT_THEORY = SGP/SGP4

EPOCH          = 2026-01-18T22:05:34.820160
MEAN_MOTION    = 15.21614071
ECCENTRICITY   = .00116416
INCLINATION    = 97.4105
RA_OF_ASC_NODE = 96.0567
ARG_OF_PERICENTER = 145.6776
MEAN_ANOMALY   = 214.5214

EPHEMERIS_TYPE = 0
CLASSIFICATION_TYPE = U
NORAD_CAT_ID   = 67295
ELEMENT_SET_NO = 999
REV_AT_EPOCH   = 325
BSTAR          = .38226968E-3
MEAN_MOTION_DOT = .8579E-4
MEAN_MOTION_DDOT = 0

CCSDS_OMM_VERS = 2.0
CREATION_DATE  = 
ORIGINATOR     = 

OBJECT_NAME    = SITRO-AIS-62
OBJECT_ID      = 2025-313BA
CENTER_NAME    = EARTH
REF_FRAME      = TEME
TIME_SYSTEM    = UTC
MEAN_ELEMENT_THEORY = SGP/SGP4

EPOCH          = 2026-01-18T22:04:24.142368
MEAN_MOTION    = 15.21704599
ECCENTRICITY   = .00099143
INCLINATION    = 97.4118
RA_OF_ASC_NODE = 96.0634
ARG_OF_PERICENTER = 154.8515
MEAN_ANOMALY   = 205.3205

EPHEMERIS_TYPE = 0
CLASSIFICATION_TYPE = U
NORAD_CAT_ID   = 67296
ELEMENT_SET_NO = 999
REV_AT_EPOCH   = 325
BSTAR          = .44530463E-3
MEAN_MOTION_DOT = .10029E-3
MEAN_MOTION_DDOT = 0

CCSDS_OMM_VERS = 2.0
CREATION_DATE  = 
ORIGINATOR     = 

OBJECT_NAME    = SITRO-AIS-61
OBJECT_ID      = 2025-313BB
CENTER_NAME    = EARTH
REF_FRAME      = TEME
TIME_SYSTEM    = UTC
MEAN_ELEMENT_THEORY = SGP/SGP4

EPOCH          = 2026-01-18T22:03:13.696992
MEAN_MOTION    = 15.21766173
ECCENTRICITY   = .00095892
INCLINATION    = 97.4121
RA_OF_ASC_NODE = 96.0644
ARG_OF_PERICENTER = 156.7263
MEAN_ANOMALY   = 203.4409

EPHEMERIS_TYPE = 0
CLASSIFICATION_TYPE = U
NORAD_CAT_ID   = 67297
ELEMENT_SET_NO = 999
REV_AT_EPOCH   = 325
BSTAR          = .44609684E-3
MEAN_MOTION_DOT = .10064E-3
MEAN_MOTION_DDOT = 0

CCSDS_OMM_VERS = 2.0
CREATION_DATE  = 
ORIGINATOR     = 

OBJECT_NAME    = TIANHUI 7
OBJECT_ID      = 2025-314A
CENTER_NAME    = EARTH
REF_FRAME      = TEME
TIME_SYSTEM    = UTC
MEAN_ELEMENT_THEORY = SGP/SGP4

EPOCH          = 2026-01-18T16:49:18.960960
MEAN_MOTION    = 15.25523919
ECCENTRICITY   = .00016604
INCLINATION    = 97.4190
RA_OF_ASC_NODE = 95.7558
ARG_OF_PERICENTER = 100.2153
MEAN_ANOMALY   = 259.9272

EPHEMERIS_TYPE = 0
CLASSIFICATION_TYPE = U
NORAD_CAT_ID   = 67300
ELEMENT_SET_NO = 999
REV_AT_EPOCH   = 299
BSTAR          = .24250648E-3
MEAN_MOTION_DOT = .6075E-4
MEAN_MOTION_DDOT = 0

CCSDS_OMM_VERS = 2.0
CREATION_DATE  = 
ORIGINATOR     = 

OBJECT_NAME    = CZ-4B R/B
OBJECT_ID      = 2025-314B
CENTER_NAME    = EARTH
REF_FRAME      = TEME
TIME_SYSTEM    = UTC
MEAN_ELEMENT_THEORY = SGP/SGP4

EPOCH          = 2026-01-18T22:28:48.667296
MEAN_MOTION    = 15.70200614
ECCENTRICITY   = .01365187
INCLINATION    = 97.3733
RA_OF_ASC_NODE = 97.1574
ARG_OF_PERICENTER = 304.2303
MEAN_ANOMALY   = 54.6086

EPHEMERIS_TYPE = 0
CLASSIFICATION_TYPE = U
NORAD_CAT_ID   = 67301
ELEMENT_SET_NO = 999
REV_AT_EPOCH   = 306
BSTAR          = .51866085E-3
MEAN_MOTION_DOT = .108594E-2
MEAN_MOTION_DDOT = .5632398E-5

