2025-313AS              
1 67288U 25313AS  26018.92461680  .00005804  00000+0  26231-3 0  9991
2 67288  97.4096  96.0490 0012684 148.0913 212.1094 15.21257955  3254
NASBSAT-1               
1 67289U 25313AT  26018.92196736  .00012983  00000+0  57693-3 0  9991
2 67289  97.4109  96.0575 0010709 155.4927 204.6820 15.21602886  3257
SAKHACUBE-CHOLBON (RS1*)
1 67290U 25313AU  26018.92231286  .00009521  00000+0  42522-3 0  9992
2 67290  97.4107  96.0566 0010566 154.4086 205.7675 15.21516454  3258
QMR-KWT-2 (RS95S)       
1 67291U 25313AV  26018.92169717  .00013196  00000+0  58646-3 0  9999
2 67291  97.4107  96.0575 0010438 154.4992 205.6761 15.21597953  3251
SITRO-AIS-64            
1 67292U 25313AW  26018.92100601  .00009599  00000+0  42746-3 0  9993
2 67292  97.4111  96.0598 0010234 154.1964 205.9784 15.21613784  3251
SCORPION (RS89S)        
1 67293U 25313AX  26018.92278402  .00004380  00000+0  19821-3 0  9990
2 67293  97.4106  96.0537 0012154 145.8910 214.3109 15.21359728  3250
SITRO-AIS-63            
1 67294U 25313AY  26018.92041279  .00009658  00000+0  42959-3 0  9992
2 67294  97.4115  96.0611 0010136 154.3669 205.8071 15.21654999  3259
ZORKIY-2M-5             
1 67295U 25313AZ  26018.92054190  .00008579  00000+0  38227-3 0  9993
2 67295  97.4105  96.0567 0011641 145.6776 214.5214 15.21614071  3256
SITRO-AIS-62            
1 67296U 25313BA  26018.91972387  .00010029  00000+0  44530-3 0  9997
2 67296  97.4118  96.0634 0009914 154.8515 205.3205 15.21704599  3252
SITRO-AIS-61            
1 67297U 25313BB  26018.91890853  .00010064  00000+0  44610-3 0  9993
2 67297  97.4121  96.0644 0009589 156.7263 203.4409 15.21766173  3258
TIANHUI 7               
1 67300U 25314A   26018.70091390  .00006075  00000+0  24251-3 0  9991
2 67300  97.4190  95.7558 0001660 100.2153 259.9272 15.25523919  2990
CZ-4B R/B               
1 67301U 25314B   26018.93667439  .00108594  56324-5  51866-3 0  9997
2 67301  97.3733  97.1574 0136518 304.2303  54.6086 15.70200614  3067
